CCSDS_OMM_VERS = 2.0
CREATION_DATE  = 
ORIGINATOR     = 

OBJECT_NAME    = ATLAS CENTAUR R/B
OBJECT_ID      = 1972-065B
CENTER_NAME    = EARTH
REF_FRAME      = TEME
TIME_SYSTEM    = UTC
MEAN_ELEMENT_THEORY = SGP/SGP4

EPOCH          = 2026-02-08T07:13:48.392256
MEAN_MOTION    = 14.77600042
ECCENTRICITY   = .003315
INCLINATION    = 35.0011
RA_OF_ASC_NODE = 117.9668
ARG_OF_PERICENTER = 123.3475
MEAN_ANOMALY   = 237.0406

EPHEMERIS_TYPE = 0
CLASSIFICATION_TYPE = U
NORAD_CAT_ID   = 6155
ELEMENT_SET_NO = 999
REV_AT_EPOCH   = 83691
BSTAR          = .22366E-3
MEAN_MOTION_DOT = .1616E-4
MEAN_MOTION_DDOT = 0

CCSDS_OMM_VERS = 2.0
CREATION_DATE  = 
ORIGINATOR     = 

OBJECT_NAME    = SL-8 R/B
OBJECT_ID      = 1975-112B
CENTER_NAME    = EARTH
REF_FRAME      = TEME
TIME_SYSTEM    = UTC
MEAN_ELEMENT_THEORY = SGP/SGP4

EPOCH          = 2026-02-08T13:35:22.869024
MEAN_MOTION    = 14.38189035
ECCENTRICITY   = .0015405
INCLINATION    = 74.0592
RA_OF_ASC_NODE = 72.4898
ARG_OF_PERICENTER = 175.9607
MEAN_ANOMALY   = 184.1674

EPHEMERIS_TYPE = 0
CLASSIFICATION_TYPE = U
NORAD_CAT_ID   = 8459
ELEMENT_SET_NO = 999
REV_AT_EPOCH   = 62768
BSTAR          = .76977E-4
MEAN_MOTION_DOT = .208E-5
MEAN_MOTION_DDOT = 0

CCSDS_OMM_VERS = 2.0
CREATION_DATE  = 
ORIGINATOR     = 

OBJECT_NAME    = SL-3 R/B
OBJECT_ID      = 1977-057B
CENTER_NAME    = EARTH
REF_FRAME      = TEME
TIME_SYSTEM    = UTC
MEAN_ELEMENT_THEORY = SGP/SGP4

EPOCH          = 2026-02-08T21:34:07.117536
MEAN_MOTION    = 15.44653131
ECCENTRICITY   = .00080269
INCLINATION    = 97.5734
RA_OF_ASC_NODE = 210.5787
ARG_OF_PERICENTER = 34.7317
MEAN_ANOMALY   = 325.4453

EPHEMERIS_TYPE = 0
CLASSIFICATION_TYPE = U
NORAD_CAT_ID   = 10114
ELEMENT_SET_NO = 999
REV_AT_EPOCH   = 66388
BSTAR          = .2700738E-3
MEAN_MOTION_DOT = .12509E-3
MEAN_MOTION_DDOT = 0

CCSDS_OMM_VERS = 2.0
CREATION_DATE  = 
ORIGINATOR     = 

OBJECT_NAME    = SEASAT 1
OBJECT_ID      = 1978-064A
CENTER_NAME    = EARTH
REF_FRAME      = TEME
TIME_SYSTEM    = UTC
MEAN_ELEMENT_THEORY = SGP/SGP4

EPOCH          = 2026-02-08T20:36:21.658464
MEAN_MOTION    = 14.46136691
ECCENTRICITY   = .00016091
INCLINATION    = 108.0163
RA_OF_ASC_NODE = 64.9937
ARG_OF_PERICENTER = 291.2706
MEAN_ANOMALY   = 68.8267

EPHEMERIS_TYPE = 0
CLASSIFICATION_TYPE = U
NORAD_CAT_ID   = 10967
ELEMENT_SET_NO = 999
REV_AT_EPOCH   = 50234
BSTAR          = .13724769E-3
MEAN_MOTION_DOT = .353E-5
MEAN_MOTION_DDOT = 0

CCSDS_OMM_VERS = 2.0
CREATION_DATE  = 
ORIGINATOR     = 

OBJECT_NAME    = SL-14 R/B
OBJECT_ID      = 1979-011B
CENTER_NAME    = EARTH
REF_FRAME      = TEME
TIME_SYSTEM    = UTC
MEAN_ELEMENT_THEORY = SGP/SGP4

EPOCH          = 2026-02-08T16:09:03.495168
MEAN_MOTION    = 14.91872200
ECCENTRICITY   = .00168235
INCLINATION    = 82.5253
RA_OF_ASC_NODE = 124.1030
ARG_OF_PERICENTER = 149.9544
MEAN_ANOMALY   = 210.2645

EPHEMERIS_TYPE = 0
CLASSIFICATION_TYPE = U
NORAD_CAT_ID   = 11267
ELEMENT_SET_NO = 999
REV_AT_EPOCH   = 52445
BSTAR          = .73601634E-4
MEAN_MOTION_DOT = .771E-5
MEAN_MOTION_DDOT = 0

CCSDS_OMM_VERS = 2.0
CREATION_DATE  = 
ORIGINATOR     = 

OBJECT_NAME    = SL-8 R/B
OBJECT_ID      = 1979-089B
CENTER_NAME    = EARTH
REF_FRAME      = TEME
TIME_SYSTEM    = UTC
MEAN_ELEMENT_THEORY = SGP/SGP4

EPOCH          = 2026-02-08T19:44:21.239520
MEAN_MOTION    = 14.42332485
ECCENTRICITY   = .00165787
INCLINATION    = 74.0697
RA_OF_ASC_NODE = 144.4782
ARG_OF_PERICENTER = 320.7394
MEAN_ANOMALY   = 39.2559

EPHEMERIS_TYPE = 0
CLASSIFICATION_TYPE = U
NORAD_CAT_ID   = 11574
ELEMENT_SET_NO = 999
REV_AT_EPOCH   = 43194
BSTAR          = .1068383E-3
MEAN_MOTION_DOT = .327E-5
MEAN_MOTION_DDOT = 0

CCSDS_OMM_VERS = 2.0
CREATION_DATE  = 
ORIGINATOR     = 

OBJECT_NAME    = SL-14 R/B
OBJECT_ID      = 1980-005B
CENTER_NAME    = EARTH
REF_FRAME      = TEME
TIME_SYSTEM    = UTC
MEAN_ELEMENT_THEORY = SGP/SGP4

EPOCH          = 2026-02-08T20:50:18.244608
MEAN_MOTION    = 14.90891576
ECCENTRICITY   = .00141181
INCLINATION    = 82.5173
RA_OF_ASC_NODE = 334.5669
ARG_OF_PERICENTER = 258.8583
MEAN_ANOMALY   = 101.1049

EPHEMERIS_TYPE = 0
CLASSIFICATION_TYPE = U
NORAD_CAT_ID   = 11672
ELEMENT_SET_NO = 999
REV_AT_EPOCH   = 47219
BSTAR          = .7938735E-4
MEAN_MOTION_DOT = .808E-5
MEAN_MOTION_DDOT = 0

CCSDS_OMM_VERS = 2.0
CREATION_DATE  = 
ORIGINATOR     = 

OBJECT_NAME    = SL-8 R/B
OBJECT_ID      = 1981-003B
CENTER_NAME    = EARTH
REF_FRAME      = TEME
TIME_SYSTEM    = UTC
MEAN_ELEMENT_THEORY = SGP/SGP4

EPOCH          = 2026-02-08T20:24:52.175232
MEAN_MOTION    = 15.09927177
ECCENTRICITY   = .02632296
INCLINATION    = 82.9391
RA_OF_ASC_NODE = 316.6675
ARG_OF_PERICENTER = 279.3275
MEAN_ANOMALY   = 77.8281

EPHEMERIS_TYPE = 0
CLASSIFICATION_TYPE = U
NORAD_CAT_ID   = 12139
ELEMENT_SET_NO = 999
REV_AT_EPOCH   = 31032
BSTAR          = .46473214E-3
MEAN_MOTION_DOT = .1753E-3
MEAN_MOTION_DDOT = 0

CCSDS_OMM_VERS = 2.0
CREATION_DATE  = 
ORIGINATOR     = 

OBJECT_NAME    = SL-3 R/B
OBJECT_ID      = 1981-046B
CENTER_NAME    = EARTH
REF_FRAME      = TEME
TIME_SYSTEM    = UTC
MEAN_ELEMENT_THEORY = SGP/SGP4

EPOCH          = 2026-02-08T21:35:52.362240
MEAN_MOTION    = 15.41183036
ECCENTRICITY   = .00206897
INCLINATION    = 81.2339
RA_OF_ASC_NODE = 324.2865
ARG_OF_PERICENTER = 116.3798
MEAN_ANOMALY   = 243.9572

EPHEMERIS_TYPE = 0
CLASSIFICATION_TYPE = U
NORAD_CAT_ID   = 12465
ELEMENT_SET_NO = 999
REV_AT_EPOCH   = 43399
BSTAR          = .29243056E-3
MEAN_MOTION_DOT = .12257E-3
MEAN_MOTION_DDOT = 0

CCSDS_OMM_VERS = 2.0
CREATION_DATE  = 
ORIGINATOR     = 

OBJECT_NAME    = SL-3 R/B
OBJECT_ID      = 1981-103B
CENTER_NAME    = EARTH
REF_FRAME      = TEME
TIME_SYSTEM    = UTC
MEAN_ELEMENT_THEORY = SGP/SGP4

EPOCH          = 2026-02-08T21:29:37.473504
MEAN_MOTION    = 15.21025784
ECCENTRICITY   = .00137215
INCLINATION    = 81.1565
RA_OF_ASC_NODE = 247.2067
ARG_OF_PERICENTER = 25.9882
MEAN_ANOMALY   = 334.2036

EPHEMERIS_TYPE = 0
CLASSIFICATION_TYPE = U
NORAD_CAT_ID   = 12904
ELEMENT_SET_NO = 999
REV_AT_EPOCH   = 96885
BSTAR          = .22818884E-3
MEAN_MOTION_DOT = .51E-4
MEAN_MOTION_DDOT = 0

CCSDS_OMM_VERS = 2.0
CREATION_DATE  = 
ORIGINATOR     = 

OBJECT_NAME    = SL-3 R/B
OBJECT_ID      = 1982-013B
CENTER_NAME    = EARTH
REF_FRAME      = TEME
TIME_SYSTEM    = UTC
MEAN_ELEMENT_THEORY = SGP/SGP4

EPOCH          = 2026-02-08T21:59:04.642944
MEAN_MOTION    = 15.21692172
ECCENTRICITY   = .00216843
INCLINATION    = 81.1742
RA_OF_ASC_NODE = 194.4811
ARG_OF_PERICENTER = 277.3094
MEAN_ANOMALY   = 82.5673

EPHEMERIS_TYPE = 0
CLASSIFICATION_TYPE = U
NORAD_CAT_ID   = 13068
ELEMENT_SET_NO = 999
REV_AT_EPOCH   = 39997
BSTAR          = .23007213E-3
MEAN_MOTION_DOT = .5263E-4
MEAN_MOTION_DDOT = 0

CCSDS_OMM_VERS = 2.0
CREATION_DATE  = 
ORIGINATOR     = 

OBJECT_NAME    = SL-3 R/B
OBJECT_ID      = 1982-039B
CENTER_NAME    = EARTH
REF_FRAME      = TEME
TIME_SYSTEM    = UTC
MEAN_ELEMENT_THEORY = SGP/SGP4

EPOCH          = 2026-02-08T21:32:26.912544
MEAN_MOTION    = 15.09919743
ECCENTRICITY   = .00300782
INCLINATION    = 81.1613
RA_OF_ASC_NODE = 249.1488
ARG_OF_PERICENTER = 58.6336
MEAN_ANOMALY   = 301.7826

EPHEMERIS_TYPE = 0
CLASSIFICATION_TYPE = U
NORAD_CAT_ID   = 13154
ELEMENT_SET_NO = 999
REV_AT_EPOCH   = 37729
BSTAR          = .14603488E-3
MEAN_MOTION_DOT = .2416E-4
MEAN_MOTION_DDOT = 0

