ATLAS CENTAUR R/B       
1 06155U 72065B   26039.30125454  .00001616  00000+0  22366-3 0  9996
2 06155  35.0011 117.9668 0033150 123.3475 237.0406 14.77600042836914
SL-8 R/B                
1 08459U 75112B   26039.56623691  .00000208  00000+0  76977-4 0  9999
2 08459  74.0592  72.4898 0015405 175.9607 184.1674 14.38189035627685
SL-3 R/B                
1 10114U 77057B   26039.89869349  .00012509  00000+0  27007-3 0  9994
2 10114  97.5734 210.5787 0008026  34.7317 325.4453 15.44653131663885
SEASAT 1                
1 10967U 78064A   26039.85858401  .00000353  00000+0  13725-3 0  9998
2 10967 108.0163  64.9937 0001609 291.2706  68.8267 14.46136691502347
SL-14 R/B               
1 11267U 79011B   26039.67295712  .00000771  00000+0  73602-4 0  9990
2 11267  82.5253 124.1030 0016823 149.9544 210.2645 14.91872200524455
SL-8 R/B                
1 11574U 79089B   26039.82246805  .00000327  00000+0  10684-3 0  9999
2 11574  74.0697 144.4782 0016578 320.7394  39.2559 14.42332485431948
SL-14 R/B               
1 11672U 80005B   26039.86826672  .00000808  00000+0  79387-4 0  9998
2 11672  82.5173 334.5669 0014118 258.8583 101.1049 14.90891576472194
SL-8 R/B                
1 12139U 81003B   26039.85060388  .00017530  00000+0  46473-3 0  9998
2 12139  82.9391 316.6675 0263229 279.3275  77.8281 15.09927177310323
SL-3 R/B                
1 12465U 81046B   26039.89991160  .00012257  00000+0  29243-3 0  9999
2 12465  81.2339 324.2865 0020689 116.3798 243.9572 15.41183036433998
SL-3 R/B                
1 12904U 81103B   26039.89557261  .00005100  00000+0  22819-3 0  9992
2 12904  81.1565 247.2067 0013721  25.9882 334.2036 15.21025784968852
SL-3 R/B                
1 13068U 82013B   26039.91602596  .00005263  00000+0  23007-3 0  9990
2 13068  81.1742 194.4811 0021684 277.3094  82.5673 15.21692172399978
SL-3 R/B                
1 13154U 82039B   26039.89753371  .00002416  00000+0  14603-3 0  9998
2 13154  81.1613 249.1488 0030078  58.6336 301.7826 15.09919743377294
